[{"url": "http://chfs.ky.gov/dail/nkadd.htm", "city": "Florence", "state": "Ky", "page_title": ["Kentucky: Cabinet for Health and Family Services - Northern Kentucky AAA"], "zip": "41042"},
{"url": "http://chfs.ky.gov/dail/nkadd.htm", "city": "Walton", "state": "Ky", "page_title": ["Kentucky: Cabinet for Health and Family Services - Northern Kentucky AAA"], "zip": "41094"},
{"url": "http://chfs.ky.gov/dail/nkadd.htm", "city": "Highland Heights", "state": "Ky", "page_title": ["Kentucky: Cabinet for Health and Family Services - Northern Kentucky AAA"], "zip": "41076"},
{"url": "http://chfs.ky.gov/dail/nkadd.htm", "city": "Newport", "state": "Ky", "page_title": ["Kentucky: Cabinet for Health and Family Services - Northern Kentucky AAA"], "zip": "41071"},
{"url": "http://chfs.ky.gov/dail/nkadd.htm", "city": "Newport", "state": "Ky", "page_title": ["Kentucky: Cabinet for Health and Family Services - Northern Kentucky AAA"], "zip": "41071"},
{"url": "http://chfs.ky.gov/dail/nkadd.htm", "city": "Elsmere", "state": "Ky", "page_title": ["Kentucky: Cabinet for Health and Family Services - Northern Kentucky AAA"], "zip": "41018"},
{"url": "http://chfs.ky.gov/dail/nkadd.htm", "city": "Covington", "state": "Ky", "page_title": ["Kentucky: Cabinet for Health and Family Services - Northern Kentucky AAA"], "zip": "41011"},
{"url": "http://chfs.ky.gov/dail/nkadd.htm", "city": "Ludlow", "state": "Ky", "page_title": ["Kentucky: Cabinet for Health and Family Services - Northern Kentucky AAA"], "zip": "41016"},
{"url": "http://chfs.ky.gov/dail/nkadd.htm", "city": "Covington", "state": "Ky", "page_title": ["Kentucky: Cabinet for Health and Family Services - Northern Kentucky AAA"], "zip": "41011"},
{"url": "http://chfs.ky.gov/dail/nkadd.htm", "city": "Covington", "state": "Ky", "page_title": ["Kentucky: Cabinet for Health and Family Services - Northern Kentucky AAA"], "zip": "41011"},
{"url": "http://chfs.ky.gov/dail/nkadd.htm", "city": "Covington", "state": "Ky", "page_title": ["Kentucky: Cabinet for Health and Family Services - Northern Kentucky AAA"], "zip": "41011"},
{"url": "http://chfs.ky.gov/dail/nkadd.htm", "city": "Erlanger", "state": "Ky", "page_title": ["Kentucky: Cabinet for Health and Family Services - Northern Kentucky AAA"], "zip": "41018"},
{"url": "http://chfs.ky.gov/dail/nkadd.htm", "city": "Newport", "state": "Ky", "page_title": ["Kentucky: Cabinet for Health and Family Services - Northern Kentucky AAA"], "zip": "41071"},
{"url": "http://chfs.ky.gov/dail/nkadd.htm", "city": "Florence", "state": "Ky", "page_title": ["Kentucky: Cabinet for Health and Family Services - Northern Kentucky AAA"], "zip": "41042"},
{"url": "http://chfs.ky.gov/dail/nkadd.htm", "city": "Walton", "state": "Ky", "page_title": ["Kentucky: Cabinet for Health and Family Services - Northern Kentucky AAA"], "zip": "41094"},
{"url": "http://chfs.ky.gov/dail/nkadd.htm", "city": "Florence", "state": "Ky", "page_title": ["Kentucky: Cabinet for Health and Family Services - Northern Kentucky AAA"], "zip": "41042"},
{"url": "http://chfs.ky.gov/dail/nkadd.htm", "city": "Edgewood", "state": "Ky", "page_title": ["Kentucky: Cabinet for Health and Family Services - Northern Kentucky AAA"], "zip": "41017"},
{"url": "http://chfs.ky.gov/dail/nkadd.htm", "city": "Alexandria", "state": "Ky", "page_title": ["Kentucky: Cabinet for Health and Family Services - Northern Kentucky AAA"], "zip": "41001"},
{"url": "http://chfs.ky.gov/dail/nkadd.htm", "city": "Covington", "state": "Ky", "page_title": ["Kentucky: Cabinet for Health and Family Services - Northern Kentucky AAA"], "zip": "41011"},
{"url": "http://chfs.ky.gov/dail/nkadd.htm", "city": "Covington", "state": "Ky", "page_title": ["Kentucky: Cabinet for Health and Family Services - Northern Kentucky AAA"], "zip": "41011"},
{"url": "http://chfs.ky.gov/dail/nkadd.htm", "city": "Covington", "state": "Ky", "page_title": ["Kentucky: Cabinet for Health and Family Services - Northern Kentucky AAA"], "zip": "41011"},
{"url": "http://chfs.ky.gov/dail/nkadd.htm", "city": "Florence", "state": "Ky", "page_title": ["Kentucky: Cabinet for Health and Family Services - Northern Kentucky AAA"], "zip": "41042"},
{"url": "http://chfs.ky.gov/dail/nkadd.htm", "city": "Newport", "state": "Ky", "page_title": ["Kentucky: Cabinet for Health and Family Services - Northern Kentucky AAA"], "zip": "41071"},
{"url": "http://chfs.ky.gov/dail/nkadd.htm", "city": "Florence", "state": "Ky", "page_title": ["Kentucky: Cabinet for Health and Family Services - Northern Kentucky AAA"], "zip": "41042"}]